OBJECT_NAME,OBJECT_ID,EPOCH,MEAN_MOTION,ECCENTRICITY,INCLINATION,RA_OF_ASC_NODE,ARG_OF_PERICENTER,MEAN_ANOMALY,EPHEMERIS_TYPE,CLASSIFICATION_TYPE,NORAD_CAT_ID,ELEMENT_SET_NO,REV_AT_EPOCH,BSTAR,MEAN_MOTION_DOT,MEAN_MOTION_DDOT
ONEWEB-0053,2020-008AC,2026-06-26T03:12:40.362336,13.10392605,.00018952,87.8821,34.5015,69.1183,291.0148,0,U,45157,999,30908,-.88966936E-2,-.3093E-4,0
ONEWEB-0054,2020-008AD,2026-06-26T13:13:47.438400,13.10360803,.00020679,87.8830,34.4028,84.2671,275.8692,0,U,45158,999,30925,.51607438E-2,.1814E-4,0
ONEWEB-0056,2020-008AE,2026-06-26T07:02:09.532896,13.10376271,.00021206,87.8831,34.4468,87.6441,272.4929,0,U,45159,999,30937,.73785721E-3,.27E-5,0
ONEWEB-0057,2020-008AF,2026-06-26T07:26:59.162208,13.10377586,.00020094,87.8826,34.4561,69.9644,290.1700,0,U,45160,999,30954,-.3139105E-2,-.1083E-4,0
ONEWEB-0058,2020-008AG,2026-06-26T07:07:59.896992,13.10370763,.00016544,87.8818,34.4638,90.0122,270.1195,0,U,45161,999,30961,.11085338E-2,.4E-5,0
ONEWEB-0059,2020-008AH,2026-06-26T07:02:33.075168,13.10379991,.00018746,87.8822,34.4634,78.1421,281.9916,0,U,45162,999,30951,-.55281802E-2,-.1917E-4,0
ONEWEB-0062,2020-008AJ,2026-06-26T07:36:22.275072,13.10359054,.00013909,87.8830,34.4473,96.3223,263.8063,0,U,45163,999,30938,.55949948E-2,.1966E-4,0
ONEWEB-0065,2020-008AK,2026-06-26T12:05:11.087520,13.10359507,.00020196,87.8827,34.4181,76.8887,283.2466,0,U,45164,999,30910,.65570228E-2,.2302E-4,0
ONEWEB-0066,2020-020A,2026-06-26T12:44:55.449312,13.11417937,.00016437,87.8880,19.2107,85.4626,274.6689,0,U,45424,999,30390,-.54499221E-4,-.7E-7,0
ONEWEB-0067,2020-020B,2026-06-26T11:49:31.795968,13.11422494,.00018833,87.8900,19.1418,82.1043,278.0298,0,U,45425,999,30395,-.70079172E-4,-.12E-6,0
ONEWEB-0080,2020-020C,2026-06-26T13:38:50.270496,13.11413753,.00017632,87.8891,19.2004,97.3102,262.8226,0,U,45426,999,30393,.57518374E-4,.33E-6,0
ONEWEB-0090,2020-020D,2026-06-26T07:00:52.232544,13.11417342,.00018394,87.8892,19.2599,89.6459,270.4880,0,U,45427,999,30386,-.11555639E-2,-.397E-5,0
ONEWEB-0061,2020-020E,2026-06-26T13:16:28.349760,13.11415435,.00017866,87.8889,19.1924,87.9867,272.1465,0,U,45428,999,30385,.1442866E-2,.524E-5,0
ONEWEB-0081,2020-020F,2026-06-26T12:49:48.595872,13.11418100,.00017383,87.8886,19.2061,81.6588,278.4737,0,U,45429,999,30396,.54258152E-3,.205E-5,0
ONEWEB-0069,2020-020G,2026-06-26T12:52:27.167520,13.11416947,.00018065,87.8886,19.2088,84.8472,275.2862,0,U,45430,999,30389,.80376773E-3,.298E-5,0
ONEWEB-0031,2020-020H,2026-06-26T13:43:30.873504,13.11413989,.00018336,87.8876,19.2061,93.7189,266.4149,0,U,45431,999,30388,-.25772585E-3,-.79E-6,0
ONEWEB-0027,2020-020J,2026-06-26T10:47:11.488128,13.17651931,.00021815,87.9134,4.0223,101.2044,258.9333,0,U,45432,999,30757,.10567374E-3,.54E-6,0
ONEWEB-0064,2020-020K,2026-06-26T11:51:12.735360,13.11415030,.00018959,87.8880,19.2137,92.3498,267.7847,0,U,45433,999,30390,-.13077581E-3,-.34E-6,0
ONEWEB-0018,2020-020L,2026-06-26T07:07:46.977600,13.11419460,.00014094,87.8886,19.2526,87.7851,272.3438,0,U,45434,999,30382,-.10751518E-2,-.368E-5,0
ONEWEB-0083,2020-020M,2026-06-25T23:34:04.338624,13.11419010,.00017636,87.8892,19.3095,89.6554,270.4776,0,U,45435,999,30382,-.12293515E-2,-.423E-5,0
ONEWEB-0095,2020-020N,2026-06-26T12:10:55.279200,13.11415110,.0002528,87.8888,19.2135,87.4717,272.6700,0,U,45436,999,30389,-.14430745E-2,-.499E-5,0
ONEWEB-0092,2020-020P,2026-06-26T11:04:48.912672,13.11413074,.00020509,87.8889,19.2139,82.0048,278.1313,0,U,45437,999,30400,.88884724E-3,.328E-5,0
ONEWEB-0085,2020-020Q,2026-06-26T06:53:08.699136,13.11418257,.00018406,87.8884,19.2547,88.2975,271.8364,0,U,45438,999,30386,-.11539216E-2,-.396E-5,0
ONEWEB-0096,2020-020R,2026-06-26T06:55:45.958368,13.11416249,.00019631,87.8888,19.2512,88.3357,271.7995,0,U,45439,999,30385,-.12038448E-2,-.414E-5,0
ONEWEB-0037,2020-020S,2026-06-26T11:18:25.623360,13.11913611,.00019092,87.8901,19.1874,86.0838,274.0509,0,U,45440,999,30391,.15209089E-2,.556E-5,0
ONEWEB-0042,2020-020T,2026-06-26T12:10:32.471328,13.11416500,.00018088,87.8887,19.2037,84.5313,275.6021,0,U,45441,999,30388,-.12172176E-2,-.419E-5,0
ONEWEB-0098,2020-020U,2026-06-26T12:04:37.655904,13.11416275,.00018229,87.8885,19.2141,90.2152,269.9185,0,U,45442,999,30386,-.11206596E-2,-.384E-5,0
ONEWEB-0055,2020-020V,2026-06-26T13:23:48.581952,13.11416363,.00018008,87.8889,19.2016,89.9777,270.1557,0,U,45443,999,30384,.10690614E-2,.392E-5,0
ONEWEB-0093,2020-020W,2026-06-26T07:25:17.668992,13.11417428,.00017258,87.8892,19.2443,74.0855,286.0463,0,U,45444,999,30387,.90969619E-3,.335E-5,0
ONEWEB-0029,2020-020X,2026-06-26T13:33:57.017664,13.11413516,.00016509,87.8877,19.2017,81.5253,278.6062,0,U,45445,999,30388,.3201899E-3,.126E-5,0
