ONEWEB-0053             
1 45157U 20008AC  26177.13380049 -.00003093  00000+0 -88967-2 0  9999
2 45157  87.8821  34.5015 0001895  69.1183 291.0148 13.10392605309082
ONEWEB-0054             
1 45158U 20008AD  26177.55124350  .00001814  00000+0  51607-2 0  9995
2 45158  87.8830  34.4028 0002067  84.2671 275.8692 13.10360803309256
ONEWEB-0056             
1 45159U 20008AE  26177.29316589  .00000270  00000+0  73786-3 0  9992
2 45159  87.8831  34.4468 0002120  87.6441 272.4929 13.10376271309373
ONEWEB-0057             
1 45160U 20008AF  26177.31040697 -.00001083  00000+0 -31391-2 0  9991
2 45160  87.8826  34.4561 0002009  69.9644 290.1700 13.10377586309540
ONEWEB-0058             
1 45161U 20008AG  26177.29722103  .00000400  00000+0  11085-2 0  9996
2 45161  87.8818  34.4638 0001654  90.0122 270.1195 13.10370763309612
ONEWEB-0059             
1 45162U 20008AH  26177.29343837 -.00001917  00000+0 -55282-2 0  9993
2 45162  87.8822  34.4634 0001874  78.1421 281.9916 13.10379991309519
ONEWEB-0062             
1 45163U 20008AJ  26177.31692448  .00001966  00000+0  55950-2 0  9996
2 45163  87.8830  34.4473 0001390  96.3223 263.8063 13.10359054309380
ONEWEB-0065             
1 45164U 20008AK  26177.50360055  .00002302  00000+0  65570-2 0  9998
2 45164  87.8827  34.4181 0002019  76.8887 283.2466 13.10359507309107
ONEWEB-0066             
1 45424U 20020A   26177.53119733 -.00000007  00000+0 -54499-4 0  9991
2 45424  87.8880  19.2107 0001643  85.4626 274.6689 13.11417937303909
ONEWEB-0067             
1 45425U 20020B   26177.49272912 -.00000012  00000+0 -70079-4 0  9994
2 45425  87.8900  19.1418 0001883  82.1043 278.0298 13.11422494303953
ONEWEB-0080             
1 45426U 20020C   26177.56863739  .00000033  00000+0  57518-4 0  9990
2 45426  87.8891  19.2004 0001763  97.3102 262.8226 13.11413753303934
ONEWEB-0090             
1 45427U 20020D   26177.29227121 -.00000397  00000+0 -11556-2 0  9995
2 45427  87.8892  19.2599 0001839  89.6459 270.4880 13.11417342303869
ONEWEB-0061             
1 45428U 20020E   26177.55310590  .00000524  00000+0  14429-2 0  9990
2 45428  87.8889  19.1924 0001786  87.9867 272.1465 13.11415435303850
ONEWEB-0081             
1 45429U 20020F   26177.53459023  .00000205  00000+0  54258-3 0  9995
2 45429  87.8886  19.2061 0001738  81.6588 278.4737 13.11418100303964
ONEWEB-0069             
1 45430U 20020G   26177.53642555  .00000298  00000+0  80377-3 0  9994
2 45430  87.8886  19.2088 0001806  84.8472 275.2862 13.11416947303891
ONEWEB-0031             
1 45431U 20020H   26177.57188511 -.00000079  00000+0 -25773-3 0  9994
2 45431  87.8876  19.2061 0001833  93.7189 266.4149 13.11413989303888
ONEWEB-0027             
1 45432U 20020J   26177.44943852  .00000054  00000+0  10567-3 0  9994
2 45432  87.9134   4.0223 0002181 101.2044 258.9333 13.17651931307579
ONEWEB-0064             
1 45433U 20020K   26177.49389740 -.00000034  00000+0 -13078-3 0  9990
2 45433  87.8880  19.2137 0001895  92.3498 267.7847 13.11415030303906
ONEWEB-0018             
1 45434U 20020L   26177.29707150 -.00000368  00000+0 -10752-2 0  9993
2 45434  87.8886  19.2526 0001409  87.7851 272.3438 13.11419460303827
ONEWEB-0083             
1 45435U 20020M   26176.98199466 -.00000423  00000+0 -12294-2 0  9999
2 45435  87.8892  19.3095 0001763  89.6554 270.4776 13.11419010303826
ONEWEB-0095             
1 45436U 20020N   26177.50758425 -.00000499  00000+0 -14431-2 0  9993
2 45436  87.8888  19.2135 0002528  87.4717 272.6700 13.11415110303898
ONEWEB-0092             
1 45437U 20020P   26177.46167723  .00000328  00000+0  88885-3 0  9998
2 45437  87.8889  19.2139 0002050  82.0048 278.1313 13.11413074304004
ONEWEB-0085             
1 45438U 20020Q   26177.28690624 -.00000396  00000+0 -11539-2 0  9998
2 45438  87.8884  19.2547 0001840  88.2975 271.8364 13.11418257303863
ONEWEB-0096             
1 45439U 20020R   26177.28872637 -.00000414  00000+0 -12038-2 0  9991
2 45439  87.8888  19.2512 0001963  88.3357 271.7995 13.11416249303858
ONEWEB-0037             
1 45440U 20020S   26177.47112990  .00000556  00000+0  15209-2 0  9991
2 45440  87.8901  19.1874 0001909  86.0838 274.0509 13.11913611303914
ONEWEB-0042             
1 45441U 20020T   26177.50732027 -.00000419  00000+0 -12172-2 0  9991
2 45441  87.8887  19.2037 0001808  84.5313 275.6021 13.11416500303886
ONEWEB-0098             
1 45442U 20020U   26177.50321361 -.00000384  00000+0 -11207-2 0  9996
2 45442  87.8885  19.2141 0001822  90.2152 269.9185 13.11416275303866
ONEWEB-0055             
1 45443U 20020V   26177.55820118  .00000392  00000+0  10691-2 0  9999
2 45443  87.8889  19.2016 0001800  89.9777 270.1557 13.11416363303849
ONEWEB-0093             
1 45444U 20020W   26177.30923228  .00000335  00000+0  90970-3 0  9995
2 45444  87.8892  19.2443 0001725  74.0855 286.0463 13.11417428303874
ONEWEB-0029             
1 45445U 20020X   26177.56524326  .00000126  00000+0  32019-3 0  9998
2 45445  87.8877  19.2017 0001650  81.5253 278.6062 13.11413516303884
